HULIANWANG DIGUI E      
1 63691U 25086E   25127.90969471  .00000117  00000+0  18365-3 0  9992
2 63691  86.5052  89.7358 0010175 270.3099  89.6879 13.41119746  1192
HULIANWANG DIGUI F      
1 63692U 25086F   25127.91062784  .00000119  00000+0  18766-3 0  9992
2 63692  86.4990  89.7297 0008931 276.3079  83.7047 13.40980405  1195
HULIANWANG DIGUI G      
1 63693U 25086G   25127.91089328  .00000130  00000+0  20768-3 0  9994
2 63693  86.5039  89.7335 0009799 279.4658  80.5378 13.40941634  1197
HULIANWANG DIGUI H      
1 63694U 25086H   25127.91134696  .00000132  00000+0  21130-3 0  9990
2 63694  86.5000  89.7311 0010889 275.1014  84.8886 13.40876033  1192
HULIANWANG DIGUI J      
1 63695U 25086J   25127.91190048  .00000129  00000+0  20724-3 0  9998
2 63695  86.4963  89.7273 0010037 277.3794  82.6208 13.40791249  1190
HULIANWANG DIGUI K      
1 63696U 25086K   25127.91233256  .00000126  00000+0  20175-3 0  9995
2 63696  86.4992  89.7323 0011153 273.8356  86.1512 13.40710259  1193
STARLINK-33894          
1 63697U 25087A   25127.91668981 -.01045187  33011-3 -31458-2 0  9990
2 63697  53.1559 211.2635 0000759  56.0495 344.1138 15.91557816  1442
STARLINK-33922          
1 63698U 25087B   25127.91668981 -.01046594  33105-3 -31435-2 0  9993
2 63698  53.1557 211.2596 0000891  54.4884 347.4362 15.91598057  1300
